LANDSAT 9               
1 49260U 21088A   23178.11926738  .00000321  00000+0  81468-4 0  9994
2 49260  98.2292 247.8899 0001191  89.6801 270.4534 14.57078473 92839
